NORAD_CAT_ID,OBJECT_NAME,OBJECT_TYPE,EPOCH,MEAN_MOTION,ECCENTRICITY,INCLINATION,RA_OF_ASC_NODE,ARG_OF_PERICENTER,MEAN_ANOMALY,BSTAR,MEAN_MOTION_DOT,MEAN_MOTION_DDOT,TLE_LINE0,TLE_LINE1,TLE_LINE2,SEMIMAJOR_AXIS,PERIOD,APOGEE,PERIGEE,DECAYED
52478.0,STARLINK-3825,PAYLOAD,2023-09-12 18:02:40,15.08852733,0.0001177,53.2172,179.5053,92.5562,267.5564,-8.9345e-05,-1.71e-05,0.0,0 STARLINK-3825,1 52478U 22049AD  23255.75186126 -.00001710  00000-0 -89345-4 0  9990,2 52478  53.2172 179.5053 0001177  92.5562 267.5564 15.08852733 75192,6917.841,95.437,540.521,538.892,0.0
52478.0,STARLINK-3825,PAYLOAD,2023-09-13 05:10:21,15.08853117,0.0001218,53.2164,177.419,95.5365,264.5766,0.00014753,2.062e-05,0.0,0 STARLINK-3825,1 52478U 22049AD  23256.21553110  .00002062  00000-0  14753-3 0  9992,2 52478  53.2164 177.4190 0001218  95.5365 264.5766 15.08853117 75268,6917.84,95.437,540.548,538.863,0.0
52478.0,STARLINK-3825,PAYLOAD,2023-09-14 01:50:23,15.08845171,0.0001182,53.2165,173.5563,107.247,252.8652,2.1352e-05,5.2e-07,0.0,0 STARLINK-3825,1 52478U 22049AD  23257.07665887  .00000052  00000-0  21352-4 0  9993,2 52478  53.2165 173.5563 0001182 107.2470 252.8652 15.08845171 75397,6917.865,95.437,540.547,538.912,0.0
52478.0,STARLINK-3825,PAYLOAD,2023-09-14 03:25:46,15.08851029,0.0001145,53.2165,173.2567,102.7947,257.3173,7.4699e-05,9.02e-06,0.0,0 STARLINK-3825,1 52478U 22049AD  23257.14289400  .00000902  00000-0  74699-4 0  9990,2 52478  53.2165 173.2567 0001145 102.7947 257.3173 15.08851029 76484,6917.847,95.437,540.504,538.92,0.0
52478.0,STARLINK-3825,PAYLOAD,2023-09-14 17:44:15,15.08833803,0.000132,53.2164,170.5804,96.2928,263.8214,-7.059e-07,-2.99e-06,0.0,0 STARLINK-3825,1 52478U 22049AD  23257.73906854 -.00000299  00000-0 -70590-6 0  9993,2 52478  53.2164 170.5804 0001320  96.2928 263.8214 15.08833803 75496,6917.899,95.438,540.677,538.851,0.0
52478.0,STARLINK-3825,PAYLOAD,2023-09-15 03:16:34,15.08841237,0.0001188,53.2163,168.7951,91.5545,268.5583,-5.9514e-05,-1.235e-05,0.0,0 STARLINK-3825,1 52478U 22049AD  23258.13650682 -.00001235  00000-0 -59514-4 0  9995,2 52478  53.2163 168.7951 0001188  91.5545 268.5583 15.08841237 76630,6917.877,95.437,540.563,538.92,0.0
52478.0,STARLINK-3825,PAYLOAD,2023-09-16 01:31:57,15.08851577,0.0001211,53.2165,164.6327,90.8538,269.2593,7.5546e-05,9.15e-06,0.0,0 STARLINK-3825,1 52478U 22049AD  23259.06385806  .00000915  00000-0  75546-4 0  9996,2 52478  53.2165 164.6327 0001211  90.8538 269.2593 15.08851577 75697,6917.845,95.437,540.548,538.872,0.0
52478.0,STARLINK-3825,PAYLOAD,2023-09-16 03:07:20,15.08854108,0.0001206,53.2165,164.3351,90.7349,269.3781,9.8993e-05,1.289e-05,0.0,0 STARLINK-3825,1 52478U 22049AD  23259.13009597  .00001289  00000-0  98993-4 0  9990,2 52478  53.2165 164.3351 0001206  90.7349 269.3781 15.08854108 76788,6917.837,95.437,540.537,538.868,0.0
52478.0,STARLINK-3825,PAYLOAD,2023-09-16 17:25:50,15.08831025,0.0001424,53.2165,161.6581,83.9209,276.1945,6.7458e-05,7.86e-06,0.0,0 STARLINK-3825,1 52478U 22049AD  23259.72627443  .00000786  00000-0  67458-4 0  9994,2 52478  53.2165 161.6581 0001424  83.9209 276.1945 15.08831025 75795,6917.908,95.438,540.758,538.788,0.0
52478.0,STARLINK-3825,PAYLOAD,2023-09-17 02:58:08,15.08841363,0.0001377,53.2168,159.8741,87.4046,272.7104,0.00017824,2.55e-05,0.0,0 STARLINK-3825,1 52478U 22049AD  23260.12370991  .00002550  00000-0  17824-3 0  9995,2 52478  53.2168 159.8741 0001377  87.4046 272.7104 15.08841363 75852,6917.876,95.437,540.694,538.789,0.0
52478.0,STARLINK-3825,PAYLOAD,2023-09-17 23:38:08,15.08850406,0.0001512,53.2166,156.0085,94.1657,265.9508,0.00040958,6.238e-05,0.0,0 STARLINK-3825,1 52478U 22049AD  23260.98482638  .00006238  00000-0  40958-3 0  9992,2 52478  53.2166 156.0085 0001512  94.1657 265.9508 15.08850406 77069,6917.849,95.437,540.76,538.668,0.0
52478.0,STARLINK-3825,PAYLOAD,2023-09-18 20:18:09,15.08845901,0.0001415,53.2151,152.1429,87.5132,272.6022,0.00016534,2.345e-05,0.0,0 STARLINK-3825,1 52478U 22049AD  23261.84594756  .00002345  00000-0  16534-3 0  9991,2 52478  53.2151 152.1429 0001415  87.5132 272.6022 15.08845901 77192,6917.862,95.437,540.706,538.748,0.0
52478.0,STARLINK-3825,PAYLOAD,2023-09-18 23:28:55,15.08852351,0.0001341,53.2157,151.5479,92.7004,267.4142,0.00024194,3.566e-05,0.0,0 STARLINK-3825,1 52478U 22049AD  23261.97842408  .00003566  00000-0  24194-3 0  9992,2 52478  53.2157 151.5479 0001341  92.7004 267.4142 15.08852351 76135,6917.843,95.437,540.635,538.78,0.0
52478.0,STARLINK-3825,PAYLOAD,2023-09-20 02:30:28,15.08856041,0.000144,53.2155,146.4932,99.6912,260.4243,0.00020736,3.015e-05,0.0,0 STARLINK-3825,1 52478U 22049AD  23263.10449621  .00003015  00000-0  20736-3 0  9996,2 52478  53.2155 146.4932 0001440  99.6912 260.4243 15.08856041 76308,6917.831,95.437,540.693,538.7,0.0
52478.0,STARLINK-3825,PAYLOAD,2023-09-20 08:52:01,15.08842209,0.0001715,53.2157,145.3023,78.6557,281.4628,-2.8128e-06,-3.33e-06,0.0,0 STARLINK-3825,1 52478U 22049AD  23263.36946069 -.00000333  00000-0 -28128-5 0  9999,2 52478  53.2157 145.3023 0001715  78.6557 281.4628 15.08842209 76341,6917.874,95.437,540.925,538.552,0.0
52478.0,STARLINK-3825,PAYLOAD,2023-09-20 21:35:08,15.08817028,0.0001596,53.2155,142.9265,93.4194,266.698,-0.00030716,-5.17e-05,0.0,0 STARLINK-3825,1 52478U 22049AD  23263.89940005 -.00005170  00000-0 -30716-3 0  9999,2 52478  53.2155 142.9265 0001596  93.4194 266.6980 15.08817028 77505,6917.951,95.439,540.92,538.712,0.0
52478.0,STARLINK-3825,PAYLOAD,2023-09-20 23:10:31,15.0881895,0.0001643,53.216,142.6331,105.3093,254.8081,-0.00030041,-5.063e-05,0.0,0 STARLINK-3825,1 52478U 22049AD  23263.96563854 -.00005063  00000-0 -30041-3 0  9992,2 52478  53.2160 142.6331 0001643 105.3093 254.8081 15.08818950 76433,6917.945,95.439,540.946,538.673,0.0
52478.0,STARLINK-3825,PAYLOAD,2023-09-21 21:25:54,15.08839846,0.0001561,53.2157,138.4687,99.1723,260.9445,0.00011938,1.612e-05,0.0,0 STARLINK-3825,1 52478U 22049AD  23264.89299704  .00001612  00000-0  11938-3 0  9993,2 52478  53.2157 138.4687 0001561  99.1723 260.9445 15.08839846 77659,6917.881,95.438,540.826,538.666,0.0
52478.0,STARLINK-3825,PAYLOAD,2023-09-22 02:12:04,15.08851045,0.0001562,53.215,137.5726,83.9946,276.1224,0.0010675,0.00016747,0.0,0 STARLINK-3825,1 52478U 22049AD  23265.09172107  .00016747  00000-0  10675-2 0  9994,2 52478  53.2150 137.5726 0001562  83.9946 276.1224 15.08851045 76608,6917.847,95.437,540.792,538.631,0.0
52478.0,STARLINK-3825,PAYLOAD,2023-09-22 21:16:41,15.08861318,0.0001522,53.215,134.0042,88.1616,271.9551,0.0006227,9.642e-05,0.0,0 STARLINK-3825,1 52478U 22049AD  23265.88659560  .00009642  00000-0  62270-3 0  9999,2 52478  53.2150 134.0042 0001522  88.1616 271.9551 15.08861318 77801,6917.815,95.436,540.733,538.627,0.0
52478.0,STARLINK-3825,PAYLOAD,2023-09-23 00:27:28,15.08863511,0.0001615,53.2155,133.4088,83.843,276.2746,0.00076674,0.00011944,0.0,0 STARLINK-3825,1 52478U 22049AD  23266.01907414  .00011944  00000-0  76674-3 0  9990,2 52478  53.2155 133.4088 0001615  83.8430 276.2746 15.08863511 76741,6917.809,95.436,540.791,538.556,0.0
52478.0,STARLINK-3825,PAYLOAD,2023-09-23 14:45:56,15.08850888,0.0001581,53.2143,130.7328,92.4392,267.6781,0.00052157,8.025e-05,0.0,0 STARLINK-3825,1 52478U 22049AD  23266.61523287  .00008025  00000-0  52157-3 0  9994,2 52478  53.2143 130.7328 0001581  92.4392 267.6781 15.08850888 76836,6917.847,95.437,540.806,538.618,0.0
52478.0,STARLINK-3825,PAYLOAD,2023-09-24 00:18:15,15.08846123,0.0001287,53.2151,128.9489,84.6511,275.4628,0.00053064,8.169e-05,0.0,0 STARLINK-3825,1 52478U 22049AD  23267.01267424  .00008169  00000-0  53064-3 0  9994,2 52478  53.2151 128.9489 0001287  84.6511 275.4628 15.08846123 76891,6917.862,95.437,540.617,538.836,0.0
52478.0,STARLINK-3825,PAYLOAD,2023-09-24 20:58:15,15.0884257,0.0001308,53.215,125.0826,83.7155,276.3986,0.00014489,2.019e-05,0.0,0 STARLINK-3825,1 52478U 22049AD  23267.87379591  .00002019  00000-0  14489-3 0  9993,2 52478  53.2150 125.0826 0001308  83.7155 276.3986 15.08842570 77026,6917.873,95.437,540.642,538.833,0.0
52478.0,STARLINK-3825,PAYLOAD,2023-09-25 08:05:57,15.08853731,0.0001379,53.2157,123.0021,81.5375,278.5774,0.00036347,5.504e-05,0.0,0 STARLINK-3825,1 52478U 22049AD  23268.33747204  .00005504  00000-0  36347-3 0  9994,2 52478  53.2157 123.0021 0001379  81.5375 278.5774 15.08853731 78173,6917.838,95.437,540.657,538.749,0.0
52478.0,STARLINK-3825,PAYLOAD,2023-09-25 20:49:02,15.08849332,0.0001316,53.2155,120.6225,94.3454,265.7688,0.00026961,4.007e-05,0.0,0 STARLINK-3825,1 52478U 22049AD  23268.86739267  .00004007  00000-0  26961-3 0  9990,2 52478  53.2155 120.6225 0001316  94.3454 265.7688 15.08849332 78254,6917.852,95.437,540.627,538.806,0.0
52478.0,STARLINK-3825,PAYLOAD,2023-09-25 22:24:25,15.08854895,0.0001225,53.215,120.328,84.621,275.4922,0.00029199,4.364e-05,0.0,0 STARLINK-3825,1 52478U 22049AD  23268.93363030  .00004364  00000-0  29199-3 0  9991,2 52478  53.2150 120.3280 0001225  84.6210 275.4922 15.08854895 77188,6917.835,95.437,540.547,538.852,0.0
52478.0,STARLINK-3825,PAYLOAD,2023-09-26 20:39:50,15.08836113,0.0001426,53.2154,116.1615,101.655,258.4603,6.2895e-05,7.13e-06,0.0,0 STARLINK-3825,1 52478U 22049AD  23269.86100085  .00000713  00000-0  62895-4 0  9998,2 52478  53.2154 116.1615 0001426 101.6550 258.4603 15.08836113 77323,6917.892,95.438,540.744,538.771,0.0
52478.0,STARLINK-3825,PAYLOAD,2023-09-26 23:50:36,15.08837317,0.0001398,53.2151,115.5665,100.4734,259.6416,9.894e-05,1.287e-05,0.0,0 STARLINK-3825,1 52478U 22049AD  23269.99348098  .00001287  00000-0  98940-4 0  9997,2 52478  53.2151 115.5665 0001398 100.4734 259.6416 15.08837317 78421,6917.889,95.438,540.721,538.786,0.0
52478.0,STARLINK-3825,PAYLOAD,2023-09-27 20:30:37,15.08839591,0.000137,53.2153,111.6999,88.9629,271.152,0.00014604,2.037e-05,0.0,0 STARLINK-3825,1 52478U 22049AD  23270.85460365  .00002037  00000-0  14604-3 0  9994,2 52478  53.2153 111.6999 0001370  88.9629 271.1520 15.08839591 78558,6917.882,95.438,540.694,538.799,0.0
